              M50 Cartesian                         M50 Keplerian  
    -----------------------------------       --------------------------------
     X    =         565373.53                 A    =         6785193.33  meter
     Y    =        6118919.45  meter          E    =           .0014757
     Z    =        2858893.86                 I    =           51.98176
     XDOT =      -5409.556155                 Wp   =           71.95121
     YDOT =      -1892.171866  meter/sec      RA   =           63.39191  deg
     ZDOT =       5102.542214                 TA   =          320.42217
                                              MA   =          320.52982
                                              Ha   =            221.156  n.mi
                                              Hp   =            213.941
 
              M50 Cartesian                         J2K Cartesian  
    -----------------------------------       --------------------------------
     X    =        1854900.04                 X    =          483020.95
     Y    =       20075195.05  feet           Y    =         6124781.75  meter
     Z    =        9379573.03                 Z    =         2861439.48
     XDOT =     -17747.887648                 XDOT =       -5412.781326
     YDOT =      -6207.912945  feet/sec       YDOT =       -1952.682485  meter/sec
     ZDOT =      16740.624063                 ZDOT =        5076.256362
 
              TDR Cartesian                         TDR Cartesian  
    -----------------------------------       --------------------------------
     X    =       16703352.17                 X    =         5091181.74
     Y    =      -11281206.10  feet           Y    =        -3438511.62  meter
     Z    =        9389510.95                 Z    =         2861922.94
     XDOT =       2381.582700                 XDOT =         725.906407
     YDOT =      17411.508715  feet/sec       YDOT =        5307.027856  meter/sec
     ZDOT =      16626.711439                 ZDOT =        5067.821647
  
  
    The mean element set is posted at the UTC for which position is
    just north of the next ascending node relative to the above
    vector time
 
 
    TWO LINE MEAN ELEMENT SET
  
    ISS
    1 25544U 98067A   16095.85362020  .00016717  00000-0  10270-3 0  9149
    2 25544  51.6418  63.7991 0002570  20.3097 339.8158 15.54356481 33574
  
  
    Satellite: ISS
    Catalog Number: 25544
    Epoch time:      16095.85362020   =   yrday.fracday
    Element set:     914
    Inclination:       51.6418  deg
    RA of node:        63.7991  deg
    Eccentricity:     .0002570     
    Arg of perigee:    20.3097  deg
    Mean anomaly:     339.8158  deg
    Mean motion:   15.54356481  rev/day
    Decay rate:    1.67170E-04  rev/day^2
    Epoch rev:            3357
    Checksum:              317
 
 
    Coasting Arc #16 (Orbit 3371)
    ---------------------------------------
 
    Vector Time (GMT): 2016/096/19:05:00.000
    Vector Time (MET): N/A
    Weight (LBS)     : 917037.0
 
              M50 Cartesian                         M50 Keplerian  
    -----------------------------------       --------------------------------
     X    =         610989.42                 A    =         6781154.10  meter
     Y    =       -5292505.32  meter          E    =           .0009790
     Z    =       -4205894.51                 I    =           51.95315
     XDOT =       5637.600586                 Wp   =           58.83000
     YDOT =       3608.501264  meter/sec      RA   =           58.42801  deg
     ZDOT =      -3723.263605                 TA   =          173.05984
                                              MA   =          173.04627
                                              Ha   =            221.130  n.mi
                                              Hp   =            213.926
 
              M50 Cartesian                         J2K Cartesian  
    -----------------------------------       --------------------------------
     X    =        2004558.45                 X    =          690556.62
     Y    =      -17363862.61  feet           Y    =        -5285228.54  meter
     Z    =      -13798866.50                 Z    =        -4202732.46
     XDOT =      18496.064916                 XDOT =        5614.916511
     YDOT =      11838.914908  feet/sec       YDOT =        3671.417305  meter/sec
     ZDOT =     -12215.431774                 ZDOT =       -3695.933056
 
              TDR Cartesian                         TDR Cartesian  
    -----------------------------------       --------------------------------
     X    =      -16095746.58                 X    =        -4905983.56
     Y    =        6845081.22  feet           Y    =         2086380.75  meter
     Z    =      -13784139.47                 Z    =        -4201405.71
     XDOT =       1497.625781                 XDOT =         456.476338
     YDOT =     -20829.447137  feet/sec       YDOT =       -6348.815488  meter/sec
     ZDOT =     -12097.304037                 ZDOT =       -3687.258270
  
  
    The mean element set is posted at the UTC for which position is
    just north of the next ascending node relative to the above
    vector time
 
 
    TWO LINE MEAN ELEMENT SET
  
    ISS
    1 25544U 98067A   16096.81800383  .00016717  00000-0  10270-3 0  9156
    2 25544  51.6418  58.9891 0002538  22.2071 337.9191 15.54370305 33720
  
  
    Satellite: ISS
    Catalog Number: 25544
    Epoch time:      16096.81800383   =   yrday.fracday
    Element set:     915
    Inclination:       51.6418  deg
    RA of node:        58.9891  deg
    Eccentricity:     .0002538     
    Arg of perigee:    22.2071  deg
    Mean anomaly:     337.9191  deg
    Mean motion:   15.54370305  rev/day
    Decay rate:    1.67170E-04  rev/day^2
    Epoch rev:            3372
    Checksum:              310
 
 
    Coasting Arc #17 (Orbit 3387)
    ---------------------------------------
 
    Vector Time (GMT): 2016/097/19:05:00.000
    Vector Time (MET): N/A
    Weight (LBS)     : 917037.0
 
              M50 Cartesian                         M50 Keplerian  
    -----------------------------------       --------------------------------
     X    =       -1883513.60                 A    =         6777882.59  meter
     Y    =        4103194.79  meter          E    =           .0006066
     Z    =        5050368.66                 I    =           51.92426
     XDOT =      -5547.015923                 Wp   =           98.30468
     YDOT =      -4934.507017  meter/sec      RA   =           53.45279  deg
     ZDOT =       1937.490803                 TA   =          332.96976
                                              MA   =          333.00133
                                              Ha   =            221.357  n.mi
                                              Hp   =            213.789
 
              M50 Cartesian                         J2K Cartesian  
    -----------------------------------       --------------------------------
     X    =       -6179506.57                 X    =        -1953789.29
     Y    =       13461925.16  feet           Y    =         4081739.86  meter
     Z    =       16569450.98                 Z    =         5041047.67
     XDOT =     -18198.871139                 XDOT =       -5500.836348
     YDOT =     -16189.327484  feet/sec       YDOT =       -4996.278962  meter/sec
     ZDOT =       6356.597123                 ZDOT =        1910.657418
 
              TDR Cartesian                         TDR Cartesian  
    -----------------------------------       --------------------------------
     X    =       14780613.45                 X    =         4505130.98
     Y    =       -1519713.74  feet           Y    =         -463208.75  meter
     Z    =       16528169.05                 Z    =         5037785.93
     XDOT =      -4636.087487                 XDOT =       -1413.079466
     YDOT =      22886.170139  feet/sec       YDOT =        6975.704658  meter/sec
     ZDOT =       6240.890754                 ZDOT =        1902.223502
  
  
    The mean element set is posted at the UTC for which position is
    just north of the next ascending node relative to the above
    vector time
 
 
    TWO LINE MEAN ELEMENT SET
  
    ISS
    1 25544U 98067A   16097.84667362  .00016717  00000-0  10270-3 0  9169
    2 25544  51.6416  53.8590 0002632  30.2171 329.9133 15.54355251 33880
  
  
    Satellite: ISS
    Catalog Number: 25544
    Epoch time:      16097.84667362   =   yrday.fracday
    Element set:     916
    Inclination:       51.6416  deg
    RA of node:        53.8590  deg
    Eccentricity:     .0002632     
    Arg of perigee:    30.2171  deg
    Mean anomaly:     329.9133  deg
    Mean motion:   15.54355251  rev/day
    Decay rate:    1.67170E-04  rev/day^2
    Epoch rev:            3388
    Checksum:              313
 
 
    Coasting Arc #18 (Orbit 3400)
    ---------------------------------------
 
    Vector Time (GMT): 2016/098/16:04:00.000
    Vector Time (MET): N/A
    Weight (LBS)     : 917037.0
 
              M50 Cartesian                         M50 Keplerian  
    -----------------------------------       --------------------------------
     X    =        4318784.15                 A    =         6777595.87  meter
     Y    =       -1134388.40  meter          E    =           .0014261
     Z    =       -5111211.95                 I    =           51.90845
     XDOT =       3760.995031                 Wp   =           93.27028
     YDOT =       6436.732304  meter/sec      RA   =           49.08218  deg
     ZDOT =       1752.744013                 TA   =          193.61655
                                              MA   =          193.65506
                                              Ha   =            221.205  n.mi
                                              Hp   =            213.832
 
